STARLINK-31977          
1 59892U 24100H   25232.84315059  .00000280  00000+0  19692-4 0  9999
2 59892  42.9994 172.4348 0001112 237.0810 122.9935 15.27579062 70526
STARLINK-31963          
1 59893U 24100J   25232.54994276  .00000547  00000+0  29385-4 0  9997
2 59893  42.9999 181.4541 0001178 250.6176 109.4549 15.27580318 70397
STARLINK-31961          
1 59894U 24100K   25232.53419674 -.00001023  00000+0 -27643-4 0  9998
2 59894  43.0026 174.4165 0001209 283.4969  76.5747 15.27600935 70475
STARLINK-31964          
1 59895U 24100L   25232.57935188 -.00000799  00000+0 -19530-4 0  9991
2 59895  43.0028 180.8190 0001168 271.4557  88.6161 15.27580290 70353
STARLINK-31905          
1 59896U 24100M   25232.54786791 -.00001343  00000+0 -39302-4 0  9998
2 59896  43.0001 177.9833 0000950 265.8765  94.1978 15.27567835 70439
STARLINK-31928          
1 59897U 24100N   25232.56150267  .00001270  00000+0  55654-4 0  9999
2 59897  43.0011 181.5480 0001316 270.0355  90.0346 15.27582564 70294
STARLINK-31953          
1 59898U 24100P   25232.54400797  .00000693  00000+0  34713-4 0  9995
2 59898  42.9978 177.9528 0000779 265.5610  94.5152 15.27573929 70437
STARLINK-31942          
1 59899U 24100Q   25232.20116687  .00002135  00000+0  87063-4 0  9990
2 59899  43.0002 183.1390 0001527 268.4353  91.6323 15.27593042 70337
STARLINK-31676          
1 59900U 24100R   25232.28453991  .00000619  00000+0  32000-4 0  9999
2 59900  42.9996 182.9024 0000967 265.9650  94.1091 15.27584173 70245
STARLINK-31908          
1 59901U 24100S   25232.53036384  .00000456  00000+0  26090-4 0  9992
2 59901  43.0018 174.3886 0001163 272.3894  87.6824 15.27572995 70469
STARLINK-31914          
1 59902U 24100T   25232.55766054 -.00000805  00000+0 -19765-4 0  9990
2 59902  43.0011 181.5113 0000537 286.3070  73.7722 15.27572152 70289
STARLINK-31850          
1 59903U 24100U   25232.58450233  .00011840  00000+0  43980-3 0  9997
2 59903  43.0007 180.8440 0001582 253.2621 106.8057 15.27526589 70345
STARLINK-31924          
1 59904U 24100V   25232.20503773 -.00000873  00000+0 -22220-4 0  9996
2 59904  43.0008 183.1674 0001196 270.5633  89.5081 15.27567841 70337
STARLINK-31898          
1 59905U 24100W   25232.54144464 -.00000720  00000+0 -16639-4 0  9990
2 59905  43.0011 177.9321 0000803  77.6420 282.4521 15.27571076 70424
STARLINK-31861          
1 59906U 24100X   25232.19827500  .00000945  00000+0  43847-4 0  9999
2 59906  42.9990 176.1647 0000681 263.6580  96.4194 15.27582250 70413
STARLINK-31920          
1 59907U 24100Y   25232.80662412  .00001440  00000+0  61847-4 0  9998
2 59907  42.9977 147.4301 0001318 285.7031  74.3675 15.27572267 70798
EARTHCARE               
1 59908U 24101A   25233.31025832  .00011883  00000+0  16600-3 0  9994
2 59908  97.0205 358.9415 0001238 105.5851 254.5542 15.57001137 69901
TIANQI 25               
1 59909U 24102A   25232.90050624  .00000024  00000+0  10482-3 0  9994
2 59909  44.9764 158.0175 0011945 270.7335  89.2129 13.99018604 62855
TIANQI 26               
1 59910U 24102B   25232.88387445  .00000040  00000+0  11597-3 0  9993
2 59910  44.9727 157.7903 0010896 275.7153  84.2437 13.98989994 62853
TIANQI 27               
1 59911U 24102C   25233.63084818  .00000034  00000+0  11131-3 0  9993
2 59911  44.9775 154.2292 0008098 289.2009  70.7947 13.99015214 62954
TIANQI 28               
1 59912U 24102D   25232.86421937  .00000029  00000+0  10839-3 0  9993
2 59912  44.9780 157.8546 0012630 279.6808  80.2598 13.99009068 62845
PAKSAT-MM1              
1 59915U 24104A   25232.88378372  .00000135  00000+0  00000+0 0  9997
2 59915   0.0091 150.8127 0001482  20.2546 154.7516  1.00275003  4516
2024-105A               
1 59917U 24105A   25232.92942601  .00002572  00000+0  14346-3 0  9996
2 59917  97.5972 243.2311 0013888 178.9221 181.2042 15.14406825 67542
2024-105B               
1 59918U 24105B   25232.86599365  .00002854  00000+0  15900-3 0  9995
2 59918  97.5958 243.1324 0012675 198.0768 162.0015 15.14368905 67534
2024-105C               
1 59919U 24105C   25232.81051618  .00003692  00000+0  19224-3 0  9999
2 59919  97.5936 243.8122 0013253 179.7675 180.3566 15.16578451 67580
2024-105D               
1 59920U 24105D   25232.93342071  .00004941  00000+0  24584-3 0  9993
2 59920  97.5993 244.7770 0013104 176.9291 183.2026 15.18011947 67635
2024-105E               
1 59921U 24105E   25233.64239690  .00003887  00000+0  20328-3 0  9995
2 59921  97.5942 244.5843 0013325 176.5021 183.6308 15.16391824 67709
STARLINK-31872          
1 59922U 24106A   25232.85360837  .00002147  00000+0  87511-4 0  9993
2 59922  43.0004  27.0753 0001088 252.8005 107.2727 15.27585946 69848
STARLINK-31972          
1 59923U 24106B   25232.70484081  .00003877  00000+0  15028-3 0  9990
2 59923  43.0026  27.6763 0001930 277.1802  82.8830 15.27593537 69838
STARLINK-31958          
1 59924U 24106C   25232.84256248 -.00000267  00000+0 -17393-6 0  9990
2 59924  43.0031  12.2854 0000776 221.6454 138.4339 15.27570709 69973
STARLINK-31959          
1 59925U 24106D   25232.87063919 -.00004557  00000+0 -15608-3 0  9995
2 59925  43.0017  22.8046 0000946 303.7933  56.2828 15.27598127 69852
STARLINK-31957          
1 59926U 24106E   25232.73425479  .00000808  00000+0  38868-4 0  9991
2 59926  43.0036  27.0351 0000557 271.2674  88.8113 15.27581370 69848
STARLINK-31968          
1 59927U 24106F   25232.87273191  .00001640  00000+0  69079-4 0  9992
2 59927  43.0038  26.3588 0001120 272.8149  87.2574 15.27586894 69868
STARLINK-31970          
1 59928U 24106G   25232.70099189  .00001169  00000+0  52015-4 0  9996
2 59928  43.0038  27.6464 0001598 265.3439  94.7230 15.27583365 69833
STARLINK-31932          
1 59929U 24106H   25232.72459228  .00077441  00000+0  27977-2 0  9996
2 59929  43.0019  24.2538 0001840 264.3346  95.7296 15.27539609 69828
STARLINK-31956          
1 59930U 24106J   25232.49842262 -.00000357  00000+0 -34489-5 0  9999
2 59930  43.0061  28.7082 0001796 289.4739  70.5919 15.27567472 69758
STARLINK-31960          
1 59931U 24106K   25232.48299469  .00002321  00000+0  93884-4 0  9998
2 59931  43.0038  28.5912 0000932 263.3002  96.7744 15.27568253 69752
STARLINK-31432          
1 59932U 24106L   25232.71641753 -.00117572  00000+0 -43418-2 0  9995
2 59932  42.9959  27.7709 0005675 278.8087  81.2122 15.27479420 69780
STARLINK-31853          
1 59933U 24106M   25232.82920347 -.00000251  00000+0  40690-6 0  9994
2 59933  43.0053  26.8892 0001487 280.5394  79.5290 15.27577967 69803
STARLINK-31971          
1 59934U 24106N   25232.72843728 -.00000687  00000+0 -15460-4 0  9990
2 59934  43.0036  24.2418 0000427 254.3767 105.7037 15.27582946 69700
STARLINK-31962          
1 59936U 24106Q   25232.78566359  .00001557  00000+0  66116-4 0  9999
2 59936  43.0033  27.4212 0001016 267.7613  92.3123 15.27568976 69792
STARLINK-31879          
1 59937U 24106R   25232.79596655 -.00003308  00000+0 -11087-3 0  9997
2 59937  42.9975  27.4922 0000541 238.9227 121.1571 15.27549590 69842
STARLINK-31876          
1 59938U 24106S   25232.82148865  .00000421  00000+0  24822-4 0  9991
2 59938  43.0036  26.8305 0001453 269.0786  90.9900 15.27579427 69817
STARLINK-31955          
1 59939U 24106T   25232.48684935  .00001117  00000+0  50094-4 0  9990
2 59939  43.0047  28.6204 0000588 314.1157  45.9646 15.27577333 69798
STARLINK-31946          
1 59940U 24106U   25232.79208536  .00003281  00000+0  12879-3 0  9997
2 59940  43.0044  27.4691 0001215 276.3977  83.6737 15.27558724 60425
STARLINK-31948          
1 59941U 24106V   25232.78612288  .00000071  00000+0  12110-4 0  9993
2 59941  43.0031  23.8570 0001147 282.3664  77.7059 15.27579878 69830
STARLINK-31900          
1 59942U 24106W   25232.73811315  .00001445  00000+0  61996-4 0  9993
2 59942  42.9997  27.0626 0000627 274.2835  85.7945 15.27579880 69791
STARLINK-31973          
1 59943U 24106X   25232.77794923  .00001978  00000+0  81377-4 0  9999
2 59943  43.0010  27.3642 0001286 279.2651  80.8055 15.27582106 69797
STARLINK-31966          
1 59944U 24106Y   25232.70870704  .00000033  00000+0  10736-4 0  9997
2 59944  43.0016  27.7009 0001803 280.9832  79.0816 15.27581552 69834
STARLINK-11145 [DTC]    
1 59945U 24107A   25232.50682348 -.00000058  00000+0  43802-5 0  9991
2 59945  53.1596 163.3368 0000936 102.3253 257.7870 15.69711669 70540
STARLINK-11113 [DTC]    
1 59947U 24107C   25233.08466296 -.00002365  00000+0 -14680-4 0  9994
2 59947  53.1591 159.8005 0000766  77.7419 282.3685 15.69705442 70646
STARLINK-11123 [DTC]    
1 59948U 24107D   25232.81536556 -.00002783  00000+0 -18111-4 0  9999
2 59948  53.1599 161.7024 0001143  98.7521 261.3626 15.69718156 70654
STARLINK-11138 [DTC]    
1 59949U 24107E   25232.54106536  .00002882  00000+0  28638-4 0  9994
2 59949  53.1598 162.8258 0001252  83.3758 276.7402 15.69715070 70618
STARLINK-11130 [DTC]    
1 59950U 24107F   25232.23742738  .00000909  00000+0  12360-4 0  9995
2 59950  53.1602 164.4962 0001167  76.8702 283.2446 15.69717702 70500
STARLINK-11124 [DTC]    
1 59952U 24107H   25232.80064640  .00000112  00000+0  57908-5 0  9993
2 59952  53.1600 161.6082 0001417  73.9252 286.1921 15.69709811 70667
STARLINK-11143 [DTC]    
1 59953U 24107J   25232.53616230  .00002883  00000+0  28673-4 0  9995
2 59953  53.1598 162.7958 0001311  95.8069 264.3098 15.69690937 70559
STARLINK-11133 [DTC]    
1 59954U 24107K   25232.53125416  .00000379  00000+0  79882-5 0  9994
2 59954  53.1601 162.7640 0001194  84.3088 275.8066 15.69703507 70556
STARLINK-11144 [DTC]    
1 59955U 24107L   25232.78102746 -.00000948  00000+0 -29628-5 0  9990
2 59955  53.1595 161.4806 0001266  81.5738 278.5424 15.69707004 70655
STARLINK-11134 [DTC]    
1 59956U 24107M   25232.52144207 -.00000671  00000+0 -67935-6 0  9998
2 59956  53.1597 162.6993 0001222  91.9583 268.1574 15.69704668 70488
